[{"OBJECT_NAME":"STARLINK-5718","OBJECT_ID":"2023-020BD","EPOCH":"2026-03-09T04:01:06.724416","MEAN_MOTION":15.02529367,"ECCENTRICITY":7.752e-5,"INCLINATION":43.0032,"RA_OF_ASC_NODE":354.2529,"ARG_OF_PERICENTER":295.1639,"MEAN_ANOMALY":64.9123,"EPHEMERIS_TYPE":0,"CLASSIFICATION_TYPE":"U","NORAD_CAT_ID":55620,"ELEMENT_SET_NO":999,"REV_AT_EPOCH":16899,"BSTAR":3.4880115e-5,"MEAN_MOTION_DOT":2.68e-6,"MEAN_MOTION_DDOT":0},{"OBJECT_NAME":"SL-8 DEB","OBJECT_ID":"1976-098E","EPOCH":"2026-03-09T08:07:12.416160","MEAN_MOTION":15.06605169,"ECCENTRICITY":0.00102283,"INCLINATION":74.028,"RA_OF_ASC_NODE":26.283,"ARG_OF_PERICENTER":218.296,"MEAN_ANOMALY":294.2383,"EPHEMERIS_TYPE":0,"CLASSIFICATION_TYPE":"U","NORAD_CAT_ID":18504,"ELEMENT_SET_NO":999,"REV_AT_EPOCH":18055,"BSTAR":0.0011587434,"MEAN_MOTION_DOT":0.00017191,"MEAN_MOTION_DDOT":0}]
